[{"OBJECT_NAME":"ONEWEB-0027","OBJECT_ID":"2020-020J","EPOCH":"2025-08-24T13:08:08.474784","MEAN_MOTION":13.17649113,"ECCENTRICITY":0.00014316,"INCLINATION":87.9031,"RA_OF_ASC_NODE":64.8598,"ARG_OF_PERICENTER":97.1199,"MEAN_ANOMALY":263.0095,"EPHEMERIS_TYPE":0,"CLASSIFICATION_TYPE":"U","NORAD_CAT_ID":45432,"ELEMENT_SET_NO":999,"REV_AT_EPOCH":26729,"BSTAR":-7.1658873e-5,"MEAN_MOTION_DOT":-1.5e-7,"MEAN_MOTION_DDOT":0},{"OBJECT_NAME":"ONEWEB-0064","OBJECT_ID":"2020-020K","EPOCH":"2025-08-24T14:53:00.451104","MEAN_MOTION":13.11418293,"ECCENTRICITY":0.00015709,"INCLINATION":87.8778,"RA_OF_ASC_NODE":80.175,"ARG_OF_PERICENTER":86.3356,"MEAN_ANOMALY":273.7952,"EPHEMERIS_TYPE":0,"CLASSIFICATION_TYPE":"U","NORAD_CAT_ID":45433,"ELEMENT_SET_NO":999,"REV_AT_EPOCH":26381,"BSTAR":0.00077205365,"MEAN_MOTION_DOT":2.86e-6,"MEAN_MOTION_DDOT":0},{"OBJECT_NAME":"ONEWEB-0018","OBJECT_ID":"2020-020L","EPOCH":"2025-08-24T13:49:31.641888","MEAN_MOTION":13.11414372,"ECCENTRICITY":0.00017336,"INCLINATION":87.8775,"RA_OF_ASC_NODE":80.1675,"ARG_OF_PERICENTER":83.7773,"MEAN_ANOMALY":276.3553,"EPHEMERIS_TYPE":0,"CLASSIFICATION_TYPE":"U","NORAD_CAT_ID":45434,"ELEMENT_SET_NO":999,"REV_AT_EPOCH":26375,"BSTAR":-8.4910803e-5,"MEAN_MOTION_DOT":-1.7e-7,"MEAN_MOTION_DDOT":0},{"OBJECT_NAME":"ONEWEB-0083","OBJECT_ID":"2020-020M","EPOCH":"2025-08-24T13:35:15.367776","MEAN_MOTION":13.11292018,"ECCENTRICITY":0.00018922,"INCLINATION":87.8784,"RA_OF_ASC_NODE":80.1576,"ARG_OF_PERICENTER":86.3171,"MEAN_ANOMALY":273.8174,"EPHEMERIS_TYPE":0,"CLASSIFICATION_TYPE":"U","NORAD_CAT_ID":45435,"ELEMENT_SET_NO":999,"REV_AT_EPOCH":26379,"BSTAR":0.0045788718,"MEAN_MOTION_DOT":1.633e-5,"MEAN_MOTION_DDOT":0},{"OBJECT_NAME":"ONEWEB-0095","OBJECT_ID":"2020-020N","EPOCH":"2025-08-24T13:22:54.531840","MEAN_MOTION":13.11417957,"ECCENTRICITY":0.00018565,"INCLINATION":87.8774,"RA_OF_ASC_NODE":80.1805,"ARG_OF_PERICENTER":110.5126,"MEAN_ANOMALY":249.6202,"EPHEMERIS_TYPE":0,"CLASSIFICATION_TYPE":"U","NORAD_CAT_ID":45436,"ELEMENT_SET_NO":999,"REV_AT_EPOCH":26379,"BSTAR":0.0016241331,"MEAN_MOTION_DOT":5.88e-6,"MEAN_MOTION_DDOT":0},{"OBJECT_NAME":"ONEWEB-0092","OBJECT_ID":"2020-020P","EPOCH":"2025-08-24T14:32:14.162208","MEAN_MOTION":13.11418892,"ECCENTRICITY":0.00018072,"INCLINATION":87.8784,"RA_OF_ASC_NODE":80.1611,"ARG_OF_PERICENTER":92.8134,"MEAN_ANOMALY":267.3201,"EPHEMERIS_TYPE":0,"CLASSIFICATION_TYPE":"U","NORAD_CAT_ID":45437,"ELEMENT_SET_NO":999,"REV_AT_EPOCH":26391,"BSTAR":-0.00071599914,"MEAN_MOTION_DOT":-2.41e-6,"MEAN_MOTION_DDOT":0},{"OBJECT_NAME":"ONEWEB-0085","OBJECT_ID":"2020-020Q","EPOCH":"2025-08-24T13:34:41.191392","MEAN_MOTION":13.11071168,"ECCENTRICITY":0.00043523,"INCLINATION":87.8777,"RA_OF_ASC_NODE":80.1837,"ARG_OF_PERICENTER":117.9983,"MEAN_ANOMALY":242.1586,"EPHEMERIS_TYPE":0,"CLASSIFICATION_TYPE":"U","NORAD_CAT_ID":45438,"ELEMENT_SET_NO":999,"REV_AT_EPOCH":26379,"BSTAR":0.070155573,"MEAN_MOTION_DOT":0.0002482,"MEAN_MOTION_DDOT":0},{"OBJECT_NAME":"ONEWEB-0096","OBJECT_ID":"2020-020R","EPOCH":"2025-08-24T13:37:19.674048","MEAN_MOTION":13.11414947,"ECCENTRICITY":0.00018469,"INCLINATION":87.8793,"RA_OF_ASC_NODE":80.1498,"ARG_OF_PERICENTER":80.7472,"MEAN_ANOMALY":279.3864,"EPHEMERIS_TYPE":0,"CLASSIFICATION_TYPE":"U","NORAD_CAT_ID":45439,"ELEMENT_SET_NO":999,"REV_AT_EPOCH":26378,"BSTAR":0.00098550315,"MEAN_MOTION_DOT":3.62e-6,"MEAN_MOTION_DDOT":0},{"OBJECT_NAME":"ONEWEB-0037","OBJECT_ID":"2020-020S","EPOCH":"2025-08-24T13:09:14.379840","MEAN_MOTION":13.11419515,"ECCENTRICITY":0.00017507,"INCLINATION":87.8794,"RA_OF_ASC_NODE":80.1187,"ARG_OF_PERICENTER":88.3284,"MEAN_ANOMALY":271.8045,"EPHEMERIS_TYPE":0,"CLASSIFICATION_TYPE":"U","NORAD_CAT_ID":45440,"ELEMENT_SET_NO":999,"REV_AT_EPOCH":26381,"BSTAR":0.0012783399,"MEAN_MOTION_DOT":4.66e-6,"MEAN_MOTION_DDOT":0},{"OBJECT_NAME":"ONEWEB-0042","OBJECT_ID":"2020-020T","EPOCH":"2025-08-24T13:22:27.772032","MEAN_MOTION":13.11416098,"ECCENTRICITY":0.00018466,"INCLINATION":87.8783,"RA_OF_ASC_NODE":80.1595,"ARG_OF_PERICENTER":87.758,"MEAN_ANOMALY":272.376,"EPHEMERIS_TYPE":0,"CLASSIFICATION_TYPE":"U","NORAD_CAT_ID":45441,"ELEMENT_SET_NO":999,"REV_AT_EPOCH":26378,"BSTAR":0.0015604496,"MEAN_MOTION_DOT":5.66e-6,"MEAN_MOTION_DDOT":0},{"OBJECT_NAME":"ONEWEB-0098","OBJECT_ID":"2020-020U","EPOCH":"2025-08-24T13:16:34.448736","MEAN_MOTION":13.1141791,"ECCENTRICITY":0.00014706,"INCLINATION":87.8783,"RA_OF_ASC_NODE":80.1706,"ARG_OF_PERICENTER":81.6541,"MEAN_ANOMALY":278.4753,"EPHEMERIS_TYPE":0,"CLASSIFICATION_TYPE":"U","NORAD_CAT_ID":45442,"ELEMENT_SET_NO":999,"REV_AT_EPOCH":26376,"BSTAR":0.0015291613,"MEAN_MOTION_DOT":5.55e-6,"MEAN_MOTION_DDOT":0},{"OBJECT_NAME":"ONEWEB-0055","OBJECT_ID":"2020-020V","EPOCH":"2025-08-24T14:42:01.174176","MEAN_MOTION":13.11418829,"ECCENTRICITY":0.00016718,"INCLINATION":87.8782,"RA_OF_ASC_NODE":80.1602,"ARG_OF_PERICENTER":83.841,"MEAN_ANOMALY":276.2909,"EPHEMERIS_TYPE":0,"CLASSIFICATION_TYPE":"U","NORAD_CAT_ID":45443,"ELEMENT_SET_NO":999,"REV_AT_EPOCH":26374,"BSTAR":4.388844e-6,"MEAN_MOTION_DOT":1.4e-7,"MEAN_MOTION_DDOT":0},{"OBJECT_NAME":"ONEWEB-0093","OBJECT_ID":"2020-020W","EPOCH":"2025-08-24T14:06:47.736000","MEAN_MOTION":13.11416718,"ECCENTRICITY":0.00021796,"INCLINATION":87.8781,"RA_OF_ASC_NODE":80.1499,"ARG_OF_PERICENTER":83.9504,"MEAN_ANOMALY":276.1872,"EPHEMERIS_TYPE":0,"CLASSIFICATION_TYPE":"U","NORAD_CAT_ID":45444,"ELEMENT_SET_NO":999,"REV_AT_EPOCH":26380,"BSTAR":-0.0011979655,"MEAN_MOTION_DOT":-4.12e-6,"MEAN_MOTION_DDOT":0},{"OBJECT_NAME":"ONEWEB-0029","OBJECT_ID":"2020-020X","EPOCH":"2025-08-24T14:29:48.565248","MEAN_MOTION":13.11417896,"ECCENTRICITY":0.0001829,"INCLINATION":87.8785,"RA_OF_ASC_NODE":80.1594,"ARG_OF_PERICENTER":82.1292,"MEAN_ANOMALY":278.0043,"EPHEMERIS_TYPE":0,"CLASSIFICATION_TYPE":"U","NORAD_CAT_ID":45445,"ELEMENT_SET_NO":999,"REV_AT_EPOCH":26378,"BSTAR":-0.0011343607,"MEAN_MOTION_DOT":-3.89e-6,"MEAN_MOTION_DDOT":0},{"OBJECT_NAME":"ONEWEB-0068","OBJECT_ID":"2020-020Y","EPOCH":"2025-08-24T14:06:23.227776","MEAN_MOTION":13.11414604,"ECCENTRICITY":0.00018809,"INCLINATION":87.8784,"RA_OF_ASC_NODE":80.1508,"ARG_OF_PERICENTER":81.8796,"MEAN_ANOMALY":278.2546,"EPHEMERIS_TYPE":0,"CLASSIFICATION_TYPE":"U","NORAD_CAT_ID":45446,"ELEMENT_SET_NO":999,"REV_AT_EPOCH":26372,"BSTAR":-0.0011144747,"MEAN_MOTION_DOT":-3.82e-6,"MEAN_MOTION_DDOT":0},{"OBJECT_NAME":"ONEWEB-0046","OBJECT_ID":"2020-020Z","EPOCH":"2025-08-24T13:54:24.162912","MEAN_MOTION":13.1141396,"ECCENTRICITY":0.00019646,"INCLINATION":87.8783,"RA_OF_ASC_NODE":80.1628,"ARG_OF_PERICENTER":88.7788,"MEAN_ANOMALY":271.3565,"EPHEMERIS_TYPE":0,"CLASSIFICATION_TYPE":"U","NORAD_CAT_ID":45447,"ELEMENT_SET_NO":999,"REV_AT_EPOCH":26373,"BSTAR":-0.00040830544,"MEAN_MOTION_DOT":-1.32e-6,"MEAN_MOTION_DDOT":0},{"OBJECT_NAME":"ONEWEB-0063","OBJECT_ID":"2020-020AA","EPOCH":"2025-08-24T14:35:54.603168","MEAN_MOTION":13.11418419,"ECCENTRICITY":0.0001802,"INCLINATION":87.8785,"RA_OF_ASC_NODE":80.1554,"ARG_OF_PERICENTER":92.2968,"MEAN_ANOMALY":267.8366,"EPHEMERIS_TYPE":0,"CLASSIFICATION_TYPE":"U","NORAD_CAT_ID":45448,"ELEMENT_SET_NO":999,"REV_AT_EPOCH":26382,"BSTAR":-0.00058031407,"MEAN_MOTION_DOT":-1.93e-6,"MEAN_MOTION_DDOT":0},{"OBJECT_NAME":"ONEWEB-0019","OBJECT_ID":"2020-020AB","EPOCH":"2025-08-24T13:58:04.027584","MEAN_MOTION":13.11415154,"ECCENTRICITY":0.00016852,"INCLINATION":87.8778,"RA_OF_ASC_NODE":80.1773,"ARG_OF_PERICENTER":82.4846,"MEAN_ANOMALY":277.6473,"EPHEMERIS_TYPE":0,"CLASSIFICATION_TYPE":"U","NORAD_CAT_ID":45449,"ELEMENT_SET_NO":999,"REV_AT_EPOCH":26366,"BSTAR":-0.00070864074,"MEAN_MOTION_DOT":-2.38e-6,"MEAN_MOTION_DDOT":0},{"OBJECT_NAME":"ONEWEB-0094","OBJECT_ID":"2020-020AC","EPOCH":"2025-08-24T12:29:21.078240","MEAN_MOTION":13.17775391,"ECCENTRICITY":0.0002364,"INCLINATION":87.9029,"RA_OF_ASC_NODE":64.8663,"ARG_OF_PERICENTER":88.0355,"MEAN_ANOMALY":272.1048,"EPHEMERIS_TYPE":0,"CLASSIFICATION_TYPE":"U","NORAD_CAT_ID":45450,"ELEMENT_SET_NO":999,"REV_AT_EPOCH":26724,"BSTAR":-0.035926935,"MEAN_MOTION_DOT":-0.00013941,"MEAN_MOTION_DDOT":0},{"OBJECT_NAME":"ONEWEB-0087","OBJECT_ID":"2020-020AD","EPOCH":"2025-08-24T14:50:20.383008","MEAN_MOTION":13.11416035,"ECCENTRICITY":0.00019735,"INCLINATION":87.8785,"RA_OF_ASC_NODE":80.1028,"ARG_OF_PERICENTER":81.1352,"MEAN_ANOMALY":278.9999,"EPHEMERIS_TYPE":0,"CLASSIFICATION_TYPE":"U","NORAD_CAT_ID":45451,"ELEMENT_SET_NO":999,"REV_AT_EPOCH":26371,"BSTAR":0.00071334486,"MEAN_MOTION_DOT":2.66e-6,"MEAN_MOTION_DDOT":0},{"OBJECT_NAME":"ONEWEB-0082","OBJECT_ID":"2020-020AE","EPOCH":"2025-08-24T14:45:41.847552","MEAN_MOTION":13.11418987,"ECCENTRICITY":0.00017603,"INCLINATION":87.8784,"RA_OF_ASC_NODE":80.1291,"ARG_OF_PERICENTER":80.0037,"MEAN_ANOMALY":280.1289,"EPHEMERIS_TYPE":0,"CLASSIFICATION_TYPE":"U","NORAD_CAT_ID":45452,"ELEMENT_SET_NO":999,"REV_AT_EPOCH":26380,"BSTAR":0.00024823338,"MEAN_MOTION_DOT":1.01e-6,"MEAN_MOTION_DDOT":0},{"OBJECT_NAME":"ONEWEB-0050","OBJECT_ID":"2020-020AF","EPOCH":"2025-08-24T13:53:35.733984","MEAN_MOTION":14.90980373,"ECCENTRICITY":0.00019671,"INCLINATION":87.9945,"RA_OF_ASC_NODE":277.9803,"ARG_OF_PERICENTER":34.408,"MEAN_ANOMALY":325.7276,"EPHEMERIS_TYPE":0,"CLASSIFICATION_TYPE":"U","NORAD_CAT_ID":45453,"ELEMENT_SET_NO":999,"REV_AT_EPOCH":29622,"BSTAR":0.00017466663,"MEAN_MOTION_DOT":1.749e-5,"MEAN_MOTION_DDOT":0},{"OBJECT_NAME":"ONEWEB-0034","OBJECT_ID":"2020-020AG","EPOCH":"2025-08-24T13:26:20.637312","MEAN_MOTION":13.11416632,"ECCENTRICITY":0.00017151,"INCLINATION":87.8782,"RA_OF_ASC_NODE":80.1605,"ARG_OF_PERICENTER":84.4097,"MEAN_ANOMALY":275.7227,"EPHEMERIS_TYPE":0,"CLASSIFICATION_TYPE":"U","NORAD_CAT_ID":45454,"ELEMENT_SET_NO":999,"REV_AT_EPOCH":26371,"BSTAR":0.0015315907,"MEAN_MOTION_DOT":5.56e-6,"MEAN_MOTION_DDOT":0}]
